STARLINK-2189           
1 47768U 21017AY  24323.91667824  .00939961  00000+0  22211-1 0  9995
2 47768  53.0472 200.3419 0001257 100.0946 202.2110 15.38596634  5596
STARLINK-2192           
1 47769U 21017AZ  24323.91667824  .01081137  00000+0  29923-1 0  9997
2 47769  53.0464 165.5943 0001242  95.5691 190.3155 15.33708869  5845
STARLINK-2193           
1 47770U 21017BA  24323.91470530 -.00001338  00000+0 -70971-4 0  9993
2 47770  53.0528 182.4545 0001557  89.0834 271.0334 15.06392427206118
STARLINK-2194           
1 47771U 21017BB  24323.85941730  .00005578  00000+0  39319-3 0  9990
2 47771  53.0518 182.6985 0001461  89.2915 270.8241 15.06389550206111
STARLINK-2195           
1 47772U 21017BC  24323.84882127  .00001563  00000+0  12386-3 0  9999
2 47772  53.0548 197.7515 0001581  96.4295 263.6874 15.06390491205875
STARLINK-2196           
1 47773U 21017BD  24323.91148750  .00010598  00000+0  72920-3 0  9993
2 47773  53.0524 197.4721 0001555  98.7031 261.4134 15.06405169205874
STARLINK-2197           
1 47774U 21017BE  24323.91667824  .00537820  00000+0  20329-1 0  9998
2 47774  53.0534 195.7196 0001138 107.1097 112.3981 15.24446205  5842
STARLINK-2198           
1 47775U 21017BF  24323.91667824  .00491639  00000+0  10517-1 0  9994
2 47775  53.0478 191.0850 0001082 102.1044 265.0033 15.42389332  5886
STARLINK-2209           
1 47776U 21017BG  24323.87921054 -.00004019  00000+0 -25096-3 0  9992
2 47776  53.0518 187.6171 0001735 111.1818 248.9357 15.06409462206039
STARLINK-2210           
1 47777U 21017BH  24323.88293109 -.00003976  00000+0 -24828-3 0  9990
2 47777  53.0520 187.5956 0001620 115.5147 244.6010 15.06382145206036
STARLINK-2211           
1 47778U 21017BJ  24323.91608843  .00000833  00000+0  74854-4 0  9992
2 47778  53.0526 187.4505 0001593  87.6559 272.4612 15.06392777206036
STARLINK-2213           
1 47780U 21017BL  24323.87554732  .00004823  00000+0  34239-3 0  9992
2 47780  53.0526 187.6263 0001647  83.4180 276.6997 15.06409733206062
STARLINK-2223           
1 47781U 21017BM  24323.91667824  .00871053  00000+0  40542-1 0  9994
2 47781  53.0516 187.0841 0001229 100.2544 131.0399 15.16911875  5845
STARLINK-2257           
1 47787U 21018A   24323.46272239  .00017672  00000+0  12024-2 0  9997
2 47787  53.0535 229.4828 0001603  99.1214 260.9956 15.06396015204815
STARLINK-2314           
1 47788U 21018B   24323.93866590  .00005327  00000+0  37626-3 0  9999
2 47788  53.0530 202.3473 0001471  90.4167 269.6991 15.06399120205255
STARLINK-2315           
1 47789U 21018C   24323.85527495  .00026496  00000+0  17904-2 0  9995
2 47789  53.0526 207.7215 0001573 106.7588 253.3574 15.06411541205164
STARLINK-2319           
1 47790U 21018D   24323.83038770  .00001020  00000+0  87393-4 0  9995
2 47790  53.0533 197.8325 0001362  90.9850 269.1294 15.06392762205300
STARLINK-2322           
1 47791U 21018E   24323.45167313  .00016966  00000+0  11552-2 0  9997
2 47791  53.0541 229.5331 0001392 104.4614 255.6530 15.06397708204826
STARLINK-2334           
1 47792U 21018F   24323.86264454 -.00001619  00000+0 -89761-4 0  9997
2 47792  53.0547 207.6912 0001989  91.2929 268.8288 15.06402195205160
STARLINK-2338           
1 47793U 21018G   24323.94373687  .00009497  00000+0  65562-3 0  9998
2 47793  53.0526 207.3236 0001433  94.5974 265.5179 15.06397925205161
STARLINK-2347           
1 47795U 21018J   24323.87001337 -.00000351  00000+0 -46486-5 0  9990
2 47795  53.0528 207.6513 0001286  92.0588 268.0548 15.06397335205215
STARLINK-2373           
1 47796U 21018K   24323.95109914 -.00016522  00000+0 -10937-2 0  9996
2 47796  53.0538 207.2940 0002311  97.0567 263.0684 15.06369285205173
STARLINK-2377           
1 47797U 21018L   24323.45674027  .00016243  00000+0  11068-2 0  9998
2 47797  53.0543 234.5142 0001394  93.7044 266.4104 15.06401990204409
STARLINK-2379           
1 47798U 21018M   24323.82946848  .00009154  00000+0  63264-3 0  9992
2 47798  53.0526 207.8385 0001329  96.2178 263.8962 15.06401238205158
STARLINK-2380           
1 47799U 21018N   24323.95848321  .00009883  00000+0  68143-3 0  9994
2 47799  53.0538 207.2613 0001565  94.4548 265.6619 15.06399363205168
STARLINK-2381           
1 47800U 21018P   24323.84789710  .00002898  00000+0  21337-3 0  9994
2 47800  53.0529 207.7515 0001340  93.0170 267.0972 15.06393682205159
STARLINK-2383           
1 47802U 21018R   24323.46410746  .00008377  00000+0  58082-3 0  9999
2 47802  53.0549 234.4781 0002037 101.9942 258.1276 15.06385406204753
STARLINK-2384           
1 47803U 21018S   24323.85896597  .00014228  00000+0  97247-3 0  9993
2 47803  53.0527 207.7044 0001277  90.9049 269.2086 15.06386529205159
STARLINK-2385           
1 47804U 21018T   24323.94004825  .00008828  00000+0  61077-3 0  9990
2 47804  53.0531 207.3411 0001418  93.3598 266.7553 15.06403230205163
STARLINK-2386           
1 47805U 21018U   24323.84055579  .00014013  00000+0  95768-3 0  9999
2 47805  53.0531 208.0267 0001479  91.9864 268.1294 15.06403372205152
STARLINK-2387           
1 47806U 21018V   24323.44659352  .00016405  00000+0  11179-2 0  9995
2 47806  53.0535 224.5657 0001131  93.2530 266.8588 15.06391952204940
STARLINK-2388           
1 47807U 21018W   24323.83408935  .00008905  00000+0  61557-3 0  9990
2 47807  53.0521 197.8143 0001526  79.0980 281.0181 15.06421643205284
STARLINK-2389           
1 47808U 21018X   24323.46502744  .00008439  00000+0  58483-3 0  9999
2 47808  53.0545 224.4746 0001537  98.0223 262.0940 15.06393438204944
STARLINK-2391           
1 47810U 21018Z   24323.49497747  .00021777  00000+0  14765-2 0  9995
2 47810  53.0544 239.3399 0001362  74.2521 285.8618 15.06395639204735
STARLINK-2392           
1 47811U 21018AA  24323.86632237  .00000645  00000+0  62221-4 0  9995
2 47811  53.0524 207.6674 0001679  94.8532 265.2648 15.06396244205211
STARLINK-2393           
1 47812U 21018AB  24323.50603142  .00010155  00000+0  69927-3 0  9996
2 47812  53.0542 239.2881 0001382  97.6421 262.4725 15.06421162204337
STARLINK-2395           
1 47814U 21018AD  24323.77971608  .00019956  00000+0  13549-2 0  9998
2 47814  53.0536 228.0566 0001139  68.3240 291.7871 15.06397799204922
STARLINK-2396           
1 47815U 21018AE  24323.87784363  .00019226  00000+0  13056-2 0  9993
2 47815  53.0533 222.6173 0001508 105.6526 254.4629 15.06413431204947
STARLINK-2399           
1 47816U 21018AF  24323.88659973  .00015305  00000+0  10437-2 0  9997
2 47816  53.0541 227.5785 0001606 119.1582 240.9568 15.06416173204871
STARLINK-2400           
1 47817U 21018AG  24323.77234288  .00010640  00000+0  73221-3 0  9992
2 47817  53.0536 228.0942 0001291  82.3324 277.7812 15.06394025204851
STARLINK-2401           
1 47818U 21018AH  24323.77746649  .00020133  00000+0  13664-2 0  9994
2 47818  53.0543 233.5325 0001169  68.3686 291.7428 15.06406890204780
STARLINK-2402           
1 47819U 21018AJ  24323.77508594  .00011746  00000+0  80613-3 0  9999
2 47819  53.0535 228.0705 0001788  79.3265 280.7925 15.06400499204920
STARLINK-2403           
1 47820U 21018AK  24323.49128537  .00013516  00000+0  92470-3 0  9996
2 47820  53.0537 239.3545 0001273 104.2752 255.8378 15.06393925204345
STARLINK-2406           
1 47821U 21018AL  24323.47009491  .00013052  00000+0  89361-3 0  9992
2 47821  53.0541 229.4638 0001420  87.9186 272.1966 15.06395520204816
STARLINK-2407           
1 47822U 21018AM  24323.47928970  .00024128  00000+0  16324-2 0  9999
2 47822  53.0549 239.3997 0001588  88.5701 271.5470 15.06417640204684
STARLINK-2408           
1 47823U 21018AN  24323.22956826  .00017770  00000+0  12086-2 0  9990
2 47823  53.0539 230.5200 0001717  98.5473 261.5711 15.06406517204784
STARLINK-2409           
1 47824U 21018AP  24323.48483594  .00010390  00000+0  71490-3 0  9992
2 47824  53.0540 229.3849 0001722  80.8601 279.2583 15.06424173204810
STARLINK-2410           
1 47825U 21018AQ  24323.43692647  .00013267  00000+0  90759-3 0  9994
2 47825  53.0545 229.5968 0001424  82.4323 277.6828 15.06411952204813
STARLINK-2411           
1 47826U 21018AR  24323.30053329  .00004968  00000+0  35228-3 0  9997
2 47826  53.0534 230.2114 0001318 109.1437 250.9695 15.06386008204795
STARLINK-2413           
1 47827U 21018AS  24323.88018480  .00011019  00000+0  75759-3 0  9998
2 47827  53.0537 217.8520 0001379  81.4154 278.6991 15.06394566205072
STARLINK-2415           
1 47828U 21018AT  24323.48391298  .00017919  00000+0  12186-2 0  9995
2 47828  53.0551 239.3902 0001139 100.0255 260.0862 15.06405490204683
STARLINK-2416           
1 47829U 21018AU  24323.50235548  .00026605  00000+0  17980-2 0  9993
2 47829  53.0546 239.3111 0001544  86.2762 273.8403 15.06404557204347
STARLINK-2419           
1 47830U 21018AV  24323.49865598  .00021037  00000+0  14274-2 0  9994
2 47830  53.0537 239.3216 0001443  90.0109 270.1045 15.06387919204671
STARLINK-2420           
1 47831U 21018AW  24323.43277083  .00006915  00000+0  48275-3 0  9992
2 47831  53.0530 214.6176 0001250 104.8555 255.2572 15.06391791205078
STARLINK-2422           
1 47832U 21018AX  24323.45534745  .00009884  00000+0  68188-3 0  9999
2 47832  53.0542 229.5166 0001495  85.0041 275.1118 15.06380178204812
STARLINK-2423           
1 47833U 21018AY  24323.87923071  .00014945  00000+0  10197-2 0  9990
2 47833  53.0551 227.6129 0001550  97.3233 262.7932 15.06414584204930
STARLINK-2424           
1 47834U 21018AZ  24323.89028883  .00017255  00000+0  11736-2 0  9997
2 47834  53.0536 227.5611 0001472  84.2093 275.9064 15.06426190204939
STARLINK-2426           
1 47836U 21018BB  24323.44430545  .00007218  00000+0  50317-3 0  9999
2 47836  53.0543 229.6515 0001351  92.3177 267.7966 15.06384677204814
STARLINK-2427           
1 47837U 21018BC  24323.85158316 -.00002180  00000+0 -12751-3 0  9993
2 47837  53.0531 207.7383 0001250  92.0723 268.0409 15.06394762205165
